{"tilejson":"3.0.0","tiles":["http://49.12.245.30:3000/greece/{z}/{x}/{y}"],"vector_layers":[{"id":"water","fields":{"class":"String","brunnel":"String","intermittent":"Number","id":"Number"},"description":"Water polygons representing oceans and lakes. Covered watered areas are excluded (`covered=yes`).\nOn low zoom levels all water originates from Natural Earth. To get a more correct display of the south pole you should also\nstyle the covering ice shelves over the water.\nOn higher zoom levels water polygons from [OpenStreetMapData](http://osmdata.openstreetmap.de/) are used.\nThe polygons are split into many smaller polygons to improve rendering performance.\nThis however can lead to less rendering options in clients since these boundaries show up. So you might not be\nable to use border styling for ocean water features.","maxzoom":14,"minzoom":0},{"id":"waterway","fields":{"name:am":"String","name:it":"String","brunnel":"String","name:pnb":"String","name:bn":"String","name:eo":"String","name:ja-Hira":"String","name:ku":"String","name:ko":"String","name_de":"String","name:no":"String","name:vi":"String","name:hu":"String","name:fi":"String","name:en":"String","name:th":"String","name:fr":"String","name:lv":"String","name:ja":"String","name:sk":"String","name:sl":"String","name:hr":"String","name:mk":"String","name:pa":"String","name:ro":"String","name:bg":"String","name:pl":"String","name:sq":"String","name:da":"String","name:sr-Latn":"String","name:tr":"String","name:cy":"String","name:zh-Hans":"String","name:uk":"String","name_int":"String","name:br":"String","name:co":"String","name:cs":"String","name:ar":"String","name:gd":"String","name:he":"String","name:id":"String","name:be":"String","name:ka":"String","intermittent":"Number","name:kn":"String","name:nl":"String","name:et":"String","name:hi":"String","name:lb":"String","name":"String","name:hy":"String","name:sr":"String","name:te":"String","name:mt":"String","name:ml":"String","name:el":"String","name:ja_rm":"String","name:oc":"String","name:ca":"String","name:nonlatin":"String","class":"String","name:ur":"String","name:sv":"String","name:ru":"String","name:zh":"String","name:latin":"String","name:ko-Latn":"String","name:lt":"String","name:rm":"String","name:ga":"String","name:ja-Latn":"String","name:pt":"String","name_en":"String","name:az":"String","name:es":"String","name:eu":"String","name:zh-Hant":"String","name:fy":"String","name:bs":"String","name:la":"String","name:ja_kana":"String","name:fa":"String","name:kk":"String","name:is":"String","name:ta":"String","name:de":"String"},"description":"OpenStreetMap [waterways](https://wiki.openstreetmap.org/wiki/Waterways) for higher zoom levels (z9 and more)\nand Natural Earth rivers and lake centerlines for low zoom levels (z3 - z8).\nLinestrings without a name or which are too short are filtered\nout at low zoom levels.\nTill z11 there is `river` class only, in z12 there is also `canal` generated,\nstarting z13 there is no generalization according to `class` field applied.\nWaterways do not have a `subclass` field.","maxzoom":14,"minzoom":0},{"id":"landcover","fields":{"class":"String","subclass":"String"},"description":"Landcover is used to describe the physical material at the surface of the earth. At lower zoom levels this is\nfrom Natural Earth data for glaciers and ice shelves and at higher zoom levels the landcover is [implied by OSM tags](http://wiki.openstreetmap.org/wiki/Landcover). The most common use case for this layer\n  is to style wood (`class=wood`) and grass (`class=grass`) areas.","maxzoom":14,"minzoom":0},{"id":"landuse","fields":{"class":"String"},"description":"Landuse is used to describe use of land by humans. At lower zoom levels this is\nfrom Natural Earth data for residential (urban) areas and at higher zoom levels mostly OSM `landuse` tags.","maxzoom":14,"minzoom":0},{"id":"mountain_peak","fields":{"name:sl":"String","name":"String","name:ja_rm":"String","name:az":"String","name:ko-Latn":"String","name:ga":"String","name_de":"String","name:rm":"String","name:oc":"String","ele_ft":"Number","name:is":"String","name:pt":"String","name:latin":"String","name:hr":"String","name:eo":"String","name:lv":"String","rank":"Number","name:kk":"String","name:de":"String","name:la":"String","name:ro":"String","name:da":"String","name:ml":"String","name:sr-Latn":"String","class":"String","name:bg":"String","name:cs":"String","name:ku":"String","name:be":"String","name:en":"String","name:vi":"String","name:hy":"String","name:pnb":"String","name:pa":"String","name:tr":"String","ele":"Number","name:et":"String","name:am":"String","name:ka":"String","name:ja-Hira":"String","name:el":"String","name:ko":"String","name:te":"String","name:sq":"String","name:zh-Hans":"String","name:fa":"String","name:id":"String","name:ta":"String","name:fr":"String","name:zh-Hant":"String","name:es":"String","name:no":"String","name:pl":"String","name:th":"String","name_int":"String","name:nonlatin":"String","name_en":"String","name:fy":"String","name:bn":"String","name:br":"String","name:cy":"String","name:sv":"String","name:he":"String","name:hi":"String","name:ar":"String","name:ca":"String","name:ja":"String","name:ru":"String","name:lt":"String","name:mt":"String","customary_ft":"Number","osm_id":"Number","name:eu":"String","name:it":"String","name:fi":"String","name:ja_kana":"String","name:ja-Latn":"String","name:uk":"String","name:kn":"String","name:ur":"String","name:bs":"String","name:sr":"String","name:co":"String","name:gd":"String","name:lb":"String","name:nl":"String","name:mk":"String","name:sk":"String","name:hu":"String","name:zh":"String"},"description":"[Natural peaks](http://wiki.openstreetmap.org/wiki/Tag:natural%3Dpeak)","maxzoom":14,"minzoom":0},{"id":"park","fields":{"name:kn":"String","name:bs":"String","name:hy":"String","name:pa":"String","name:nl":"String","name:co":"String","name:mt":"String","name:sq":"String","name:vi":"String","name:az":"String","name:lb":"String","name:sv":"String","name:pnb":"String","name:th":"String","name:da":"String","class":"String","name:gd":"String","name:ko":"String","name:nonlatin":"String","name:ko-Latn":"String","name:te":"String","name:ja-Hira":"String","name:is":"String","name:et":"String","name:tr":"String","name:rm":"String","name:lt":"String","name_en":"String","name:ku":"String","name:pl":"String","rank":"Number","name:no":"String","name:sr":"String","name_de":"String","name:fr":"String","name:be":"String","name:ga":"String","name:ja_rm":"String","name:lv":"String","name:uk":"String","name:ur":"String","name:latin":"String","name:ru":"String","name:kk":"String","name:zh":"String","name:cs":"String","name:fy":"String","name:bg":"String","name:ar":"String","name:id":"String","name:sl":"String","name:sr-Latn":"String","name:eu":"String","name:ja_kana":"String","name:ja-Latn":"String","name:am":"String","name:de":"String","name:ka":"String","name:fi":"String","name:ja":"String","name:oc":"String","name_int":"String","name:pt":"String","name:ml":"String","name:fa":"String","name:it":"String","name:mk":"String","name:bn":"String","name:cy":"String","name:hu":"String","name":"String","name:br":"String","name:sk":"String","name:ca":"String","name:en":"String","name:ta":"String","name:es":"String","name:zh-Hant":"String","name:el":"String","name:eo":"String","name:hi":"String","name:hr":"String","name:zh-Hans":"String","name:la":"String","name:ro":"String","name:he":"String"},"description":"The park layer in OpenMapTiles contains natural and protected areas from OpenStreetMap, \nsuch as parks tagged with [`boundary=national_park`](https://wiki.openstreetmap.org/wiki/Tag:boundary%3Dnational_park),\n[`boundary=protected_area`](https://wiki.openstreetmap.org/wiki/Tag:boundary%3Dprotected_area),\nor [`leisure=nature_reserve`](https://wiki.openstreetmap.org/wiki/Tag:leisure%3Dnature_reserve).\nThis layer also includes boundaries for indigenous lands tagged with \n[`boundary=aboriginal_lands`](https://wiki.openstreetmap.org/wiki/Tag:boundary%3Daboriginal_lands).\nIndigenous boundaries are not parks, but they are included in this layer for technical reasons related to data processing.\nThese boundaries represent areas with special legal and administrative status for indigenous peoples.","maxzoom":14,"minzoom":0},{"id":"boundary","fields":{"disputed":"Number","disputed_name":"String","maritime":"Number","adm0_l":"String","adm0_r":"String","claimed_by":"String","admin_level":"Number"},"description":"Contains administrative boundaries as linestrings.\nUntil z4 [Natural Earth data](http://www.naturalearthdata.com/downloads/) is used after which\nOSM boundaries ([`boundary=administrative`](http://wiki.openstreetmap.org/wiki/Tag:boundary%3Dadministrative))\nare present from z5 to z14 (also for maritime boundaries with `admin_level <= 2` at z4).\nOSM data contains several [`admin_level`](http://wiki.openstreetmap.org/wiki/Tag:boundary%3Dadministrative#admin_level)\nbut for most styles it makes sense to just style `admin_level=2` and `admin_level=4`.","maxzoom":14,"minzoom":0},{"id":"aeroway","fields":{"class":"String","ref":"String"},"description":"Aeroway polygons based of OpenStreetMap [aeroways](http://wiki.openstreetmap.org/wiki/Aeroways).\nAirport buildings are contained in the **building** layer but all\nother airport related polygons can be found in the **aeroway** layer.","maxzoom":14,"minzoom":0},{"id":"transportation","fields":{"level":"Number","ramp":"Number","toll":"Number","layer":"Number","surface":"String","brunnel":"String","mtb_scale":"String","subclass":"String","oneway":"Number","network":"String","access":"String","horse":"String","bicycle":"String","class":"String","foot":"String","indoor":"Number","service":"String","expressway":"Number"},"description":"**transportation** contains roads, railways, aerial ways, and shipping\n lines.\nThis layer is directly derived from the OSM road hierarchy.\nAt lower zoom levels major highways from Natural Earth are used.\nIt contains all roads from motorways to primary, secondary and\ntertiary roads to residential roads and\nfoot paths. Styling the roads is the most essential part of the map.\nThe `transportation` layer also contains polygons for features like plazas.","maxzoom":14,"minzoom":0},{"id":"building","fields":{"osm_id":"Number","render_min_height":"Number","colour":"String","hide_3d":"Boolean","render_height":"Number"},"description":"All [OSM Buildings](http://wiki.openstreetmap.org/wiki/Buildings). All building tags are imported ([`building=*`](http://wiki.openstreetmap.org/wiki/Key:building)).\nOnly buildings with tag location:underground are excluded.","maxzoom":14,"minzoom":0},{"id":"water_name","fields":{"name:hy":"String","name:id":"String","name:no":"String","name:pnb":"String","name:ca":"String","name:nl":"String","name:ar":"String","name:bg":"String","name:sv":"String","name:eo":"String","name:lt":"String","name:is":"String","name:latin":"String","name:ja_rm":"String","name:da":"String","name:sk":"String","name:fr":"String","name:cs":"String","name:fy":"String","name:ja_kana":"String","name:he":"String","name:sr":"String","name:tr":"String","name":"String","name:uk":"String","name:nonlatin":"String","name:ko":"String","name:ja-Hira":"String","name:el":"String","name:pt":"String","name:sq":"String","name:pl":"String","name:ja":"String","name:ja-Latn":"String","name:mt":"String","name:te":"String","name:th":"String","name:zh":"String","name:zh-Hans":"String","name:fa":"String","name:gd":"String","name:rm":"String","name:ur":"String","name:zh-Hant":"String","name:de":"String","name:hi":"String","name:hu":"String","name_int":"String","name:lv":"String","name:ka":"String","name:mk":"String","name:co":"String","name_en":"String","name:sr-Latn":"String","name:ga":"String","intermittent":"Number","name:ko-Latn":"String","name:it":"String","name:vi":"String","name:cy":"String","name:et":"String","name:lb":"String","name_de":"String","name:oc":"String","name:sl":"String","name:be":"String","name:la":"String","name:ro":"String","name:fi":"String","name:en":"String","name:kk":"String","name:ml":"String","name:pa":"String","name:eu":"String","name:az":"String","name:bs":"String","name:am":"String","name:br":"String","osm_id":"Number","name:es":"String","name:ta":"String","name:kn":"String","name:ku":"String","class":"String","name:ru":"String","name:bn":"String","name:hr":"String"},"description":"Lake center lines for labelling lake bodies.\nThis is based of the [osm-lakelines](https://github.com/openmaptiles/osm-lakelines) project\nwhich derives nice centerlines from OSM water bodies. Only the most important lakes contain labels.","maxzoom":14,"minzoom":0},{"id":"transportation_name","fields":{"class":"String","route_1":"String","name:cs":"String","name:lv":"String","name:be":"String","name:pl":"String","name:zh-Hant":"String","name:no":"String","ref_length":"Number","name:hi":"String","name:hy":"String","brunnel":"String","indoor":"Number","name:it":"String","route_3":"String","name:lt":"String","name:th":"String","route_4":"String","route_6":"String","ref":"String","name:et":"String","name:ar":"String","name:ka":"String","name:co":"String","name:sr":"String","name:ur":"String","name:ta":"String","name":"String","name:ko-Latn":"String","network":"String","name:az":"String","name:kk":"String","name:de":"String","name:gd":"String","name:nl":"String","name:ca":"String","name:bg":"String","name:ku":"String","name:ko":"String","subclass":"String","name:mt":"String","name:zh":"String","name:pa":"String","name:rm":"String","name:el":"String","name:ga":"String","name:bs":"String","name:sr-Latn":"String","name:hr":"String","name:latin":"String","name:en":"String","name:hu":"String","name:ml":"String","name:fy":"String","name:mk":"String","name:pnb":"String","name:fr":"String","name:oc":"String","name:sv":"String","name:es":"String","name:cy":"String","name_en":"String","name:eu":"String","name:nonlatin":"String","name:ja-Hira":"String","name:eo":"String","name:ru":"String","name:uk":"String","layer":"Number","route_2":"String","name:bn":"String","name:da":"String","name:vi":"String","route_5":"String","name:tr":"String","name_de":"String","name:is":"String","name:fa":"String","name:kn":"String","name:ja":"String","name:lb":"String","name:pt":"String","name:te":"String","name:he":"String","level":"Number","name:ja_kana":"String","name_int":"String","name:fi":"String","name:la":"String","name:br":"String","name:ro":"String","name:am":"String","name:sk":"String","name:sl":"String","name:sq":"String","name:id":"String","name:zh-Hans":"String","name:ja_rm":"String","name:ja-Latn":"String"},"description":"This is the layer for labelling the highways. Only highways that are named `name=*` and are long enough\nto place text upon appear. The OSM roads are stitched together if they contain the same name\nto have better label placement than having many small linestrings.\nFor motorways you should use the `ref` field to label them while for other roads you should use `name`.","maxzoom":14,"minzoom":0},{"id":"place","fields":{"name_en":"String","name:hy":"String","name:lt":"String","name:no":"String","name:sq":"String","name:pl":"String","name:ja-Hira":"String","name:mk":"String","name:te":"String","name:it":"String","name:nonlatin":"String","name:ar":"String","name:hu":"String","name:am":"String","name:bn":"String","name:et":"String","name:be":"String","name:eo":"String","name:hr":"String","name":"String","name:rm":"String","name:ru":"String","name:sk":"String","iso_a2":"String","name:ga":"String","name:gd":"String","name:kk":"String","name:ja_rm":"String","name:ur":"String","name:he":"String","name:id":"String","name:ja":"String","name_de":"String","name:eu":"String","name:fi":"String","name:el":"String","name:ko-Latn":"String","name:mt":"String","name:pt":"String","name:sl":"String","name:sr":"String","name:lv":"String","name:la":"String","name:es":"String","name:ml":"String","name:bs":"String","name:fy":"String","name:cs":"String","name:ja_kana":"String","name:fr":"String","name:br":"String","name:az":"String","name:is":"String","name:tr":"String","name:ta":"String","name:fa":"String","name:latin":"String","name:hi":"String","name:ku":"String","name:en":"String","name:ko":"String","name:de":"String","name:oc":"String","name:bg":"String","name:th":"String","name:cy":"String","name:co":"String","name:ca":"String","name:kn":"String","name:uk":"String","name:zh-Hans":"String","name:ro":"String","name:vi":"String","name:sv":"String","name:nl":"String","name:ka":"String","name:zh":"String","name:zh-Hant":"String","name_int":"String","rank":"Number","capital":"Number","name:pa":"String","osm_id":"Number","name:sr-Latn":"String","name:lb":"String","name:da":"String","name:ja-Latn":"String","name:pnb":"String","class":"String"},"description":"The place layer consists out of [countries](http://wiki.openstreetmap.org/wiki/Tag:place%3Dcountry),\n[states](http://wiki.openstreetmap.org/wiki/Tag:place%3Dstate), [cities](http://wiki.openstreetmap.org/wiki/Key:place)\nand [islands](https://wiki.openstreetmap.org/wiki/Tag:place%3Disland).\nApart from the roads this is also one of the more important layers to create a beautiful map.\nWe suggest you use different font styles and sizes to create a text hierarchy.","maxzoom":14,"minzoom":0},{"id":"housenumber","fields":{"housenumber":"String"},"description":"Everything in OpenStreetMap which contains a `addr:housenumber` tag useful for labelling housenumbers on a map.\nThis adds significant size to *z14*. For buildings the centroid of the building is used as housenumber.\nDuplicates within a tile are dropped if they have the same street/block_number (records without name tag are prioritized for preservation).","maxzoom":14,"minzoom":0},{"id":"poi","fields":{"name:es":"String","name:co":"String","name:ka":"String","name:mt":"String","name:eo":"String","name:da":"String","name:lb":"String","name:el":"String","name:ja-Hira":"String","name:lt":"String","name:nl":"String","name:ro":"String","name:de":"String","name:is":"String","name:la":"String","name:sq":"String","name:az":"String","name:ja-Latn":"String","name:id":"String","name:kk":"String","name:te":"String","name:ru":"String","name:latin":"String","name:br":"String","name:en":"String","name:ko-Latn":"String","name:pa":"String","name:ca":"String","name:uk":"String","osm_id":"Number","name:kn":"String","name:pnb":"String","name:ml":"String","name:ur":"String","name:nonlatin":"String","name:oc":"String","name:he":"String","name:rm":"String","layer":"Number","name:lv":"String","level":"Number","subclass":"String","name_en":"String","name_de":"String","name:cy":"String","name:sk":"String","rank":"Number","name:it":"String","name:am":"String","name:vi":"String","name:fy":"String","name:th":"String","name:ku":"String","name:ar":"String","name:zh-Hans":"String","class":"String","name:be":"String","name:ja":"String","name:mk":"String","name:pl":"String","name:hi":"String","name:ja_kana":"String","name:sl":"String","name:sr":"String","name:sv":"String","indoor":"Number","name:fi":"String","name:hu":"String","name:ko":"String","name:sr-Latn":"String","name:et":"String","name:fa":"String","name:hr":"String","name:hy":"String","name:ja_rm":"String","name:zh-Hant":"String","name:ta":"String","name:zh":"String","name":"String","name:ga":"String","name:bg":"String","name:cs":"String","name:no":"String","name:pt":"String","name_int":"String","agg_stop":"Number","name:bn":"String","name:gd":"String","name:eu":"String","name:fr":"String","name:bs":"String","name:tr":"String"},"description":"[Points of interests](http://wiki.openstreetmap.org/wiki/Points_of_interest) containing\na of a variety of OpenStreetMap tags. Mostly contains amenities, sport, shop and tourist POIs.","maxzoom":14,"minzoom":0},{"id":"aerodrome_label","fields":{"name:sr":"String","name:uk":"String","name:kk":"String","name:fr":"String","name:ur":"String","name:el":"String","name:cs":"String","name:zh-Hant":"String","name:am":"String","name:fi":"String","name:vi":"String","iata":"String","name_en":"String","name:ar":"String","name:ta":"String","name":"String","name:be":"String","name:nl":"String","name:nonlatin":"String","name:hu":"String","name:ml":"String","name:he":"String","name:hy":"String","name:lt":"String","name:mt":"String","name:hi":"String","id":"Number","icao":"String","class":"String","name:de":"String","name:ja":"String","name:ca":"String","name:ja-Latn":"String","name:ja-Hira":"String","name:lb":"String","name:rm":"String","name:gd":"String","name:ku":"String","name:es":"String","name:hr":"String","name:is":"String","name:bg":"String","name:co":"String","name:bn":"String","name:kn":"String","name:no":"String","name:pt":"String","name:sk":"String","name:cy":"String","name:ko":"String","name:th":"String","name:zh-Hans":"String","ele":"Number","name:sv":"String","name:da":"String","ele_ft":"Number","name:fy":"String","name:pa":"String","name:ro":"String","name:mk":"String","name:sq":"String","name:fa":"String","name:pnb":"String","name:en":"String","name_int":"String","name:te":"String","name:ja_rm":"String","name:sr-Latn":"String","name:it":"String","name:zh":"String","name:id":"String","name:ja_kana":"String","name:latin":"String","name_de":"String","name:pl":"String","name:tr":"String","name:az":"String","name:br":"String","name:bs":"String","name:ga":"String","name:ru":"String","name:la":"String","name:eu":"String","name:ko-Latn":"String","name:lv":"String","name:oc":"String","name:et":"String","name:sl":"String","name:ka":"String","name:eo":"String"},"description":"[Aerodrome labels](http://wiki.openstreetmap.org/wiki/Tag:aeroway%3Daerodrome)","maxzoom":14,"minzoom":0}],"attribution":"<a href=\"https://www.openmaptiles.org/\" target=\"_blank\">&copy; OpenMapTiles</a> <a href=\"https://www.openstreetmap.org/copyright\" target=\"_blank\">&copy; OpenStreetMap contributors</a>","bounds":[18.97064,34.59111,29.65683,41.74954],"center":[24.3,38.2,1],"description":"A tileset showcasing all layers in OpenMapTiles. https://openmaptiles.org","maxzoom":12,"minzoom":0,"name":"OpenMapTiles","version":"3.14.0","id":"openmaptiles","filesize":"84041728","tilejson":"2.1.0","pixel_scale":"256","scheme":"tms","format":"pbf","maskLevel":"8"}